SIRION PATHFINDER-2     
1 43759U 18099B   26159.06410818  .00005499  00000+0  30221-3 0  9993
2 43759  97.4257 208.3390 0007877 341.7112  18.3836 15.14472143411240
CORVUS BC4              
1 43767U 18099K   26159.05832343  .00005369  00000+0  31238-3 0  9997
2 43767  97.4070 202.3062 0009173  42.4404 317.7535 15.12424623411028
M2 PATHFINDER           
1 45727U 20037E   26159.00261381  .00003111  00000+0  22564-3 0  9998
2 45727  97.8161 350.1310 0011604 177.3057 182.8233 15.04638324324118
NETSAT-4                
1 46504U 20068U   26158.98510382  .00018852  00000+0  42126-3 0  9994
2 46504  97.8613 166.4883 0005056  15.4925 344.6476 15.43561096314353
NETSAT-3                
1 46505U 20068V   26158.98427104  .00019094  00000+0  44400-3 0  9990
2 46505  97.8661 164.7158 0005503  33.0816 327.0773 15.42363292314267
NETSAT-1                
1 46506U 20068W   26158.94110694  .00013693  00000+0  41285-3 0  9997
2 46506  97.8751 159.1088 0006063  58.2539 301.9293 15.34424602313880
NETSAT-2                
1 46507U 20068X   26158.97285985  .00024750  00000+0  51519-3 0  9994
2 46507  97.8623 166.3369 0004698  51.1192 309.0474 15.45603022314316
GREENCUBE (IO-117)      
1 53109U 22080E   26152.46502029 -.00000003  00000+0  00000+0 0  9996
2 53109  70.1435 303.7143 0008869 293.3663  66.6064  6.42583280 91055
SITRO-AIS 5 (KATYS)     
1 57176U 23091L   26159.10618661  .00013129  00000+0  46396-3 0  9999
2 57176  97.5062 222.9206 0012682 131.4729 228.7602 15.29248526162950
SITRO-AIS 6 (CHIRKIN)   
1 57192U 23091AC  26159.12987491  .00011382  00000+0  44742-3 0  9991
2 57192  97.5069 222.1114 0012916 134.5217 225.7078 15.25763522162904
SITRO-AIS 8 (ANOKHIN)   
1 57193U 23091AD  26159.13897133  .00011763  00000+0  38369-3 0  9997
2 57193  97.5058 224.5056 0011827 127.6007 232.6310 15.31886167163066
SITRO-AIS 7 (FARTUSHNIY)
1 57194U 23091AE  26159.13118181  .00010776  00000+0  42773-3 0  9994
2 57194  97.5067 221.9422 0012759 135.4137 224.8129 15.25455046162893
SITRO-AIS 10 (BURDAEV)  
1 57199U 23091AK  26159.14326205  .00017772  00000+0  47262-3 0  9999
2 57199  97.5081 229.4717 0007941 106.7943 253.4173 15.38265176163375
SITRO-AIS 9 (SHCHUKIN)  
1 57201U 23091AM  26159.03667899  .00020191  00000+0  54479-3 0  9995
2 57201  97.5079 229.0996 0008162 107.2841 252.9297 15.37787207163341
SITRO-AIS 12 (SMIRENNIY)
1 57204U 23091AQ  26159.15914314  .00016928  00000+0  45308-3 0  9992
2 57204  97.5092 229.6864 0007778 101.7982 258.4135 15.38078708163382
SITRO-AIS 11 (SHEFFER)  
1 57208U 23091AU  26159.10999365  .00020941  00000+0  55216-3 0  9999
2 57208  97.5090 229.8770 0007665 102.0159 258.1946 15.38496668163394
SITRO-AIS 25            
1 59066U 24039R   26159.19722655  .00004008  00000+0  31283-3 0  9995
2 59066  95.3910 228.9150 0144625   0.3665 359.7640 14.93466802123388
SITRO-AIS 26            
1 59067U 24039S   26159.19737587  .00003987  00000+0  31265-3 0  9991
2 59067  95.3911 228.8146 0144993   0.9408 359.2061 14.93263732123371
SITRO-AIS 27            
1 59068U 24039T   26159.17013380  .00003401  00000+0  26478-3 0  9999
2 59068  95.3911 229.0634 0144055 359.6625   0.4479 14.93681660123395
SITRO-AIS 28            
1 59071U 24039U   26159.21477248  .00004197  00000+0  32593-3 0  9993
2 59071  95.3915 229.1409 0143897 359.4131   0.6902 14.93717974123400
GRBBETA                 
1 60237U 24128C   26158.79556698  .00004941  00000+0  33997-3 0  9993
2 60237  61.9897 249.2153 0041910 132.7105 227.7529 15.06577038104854
OOV-CUBE (TUBSAT-30)    
1 60240U 24128F   26159.00606000  .00002948  00000+0  23033-3 0  9990
2 60240  61.9951 257.5861 0045783 131.6812 228.8211 15.02735598104732
ROBUSTA-3A (MEDITERRAN*)
1 60243U 24128J   26158.94009382  .00008231  00000+0  48496-3 0  9996
2 60243  61.9858 240.9422 0042507 126.1786 234.3253 15.11566306105020
LASARSAT                
1 62391U 24247Q   26158.86615920  .00034284  00000+0  69568-3 0  9996
2 62391  44.9755 314.5710 0008333 280.1166  79.8784 15.45786656 81879
CROCUBE                 
1 62394U 24247T   26159.13333964  .00039469  00000+0  75042-3 0  9999
2 62394  44.9729 310.5486 0008191 284.7538  75.2445 15.47614450 81940
FORESAIL-1 PRIME        
1 66778U 25276DS  26158.70613013  .00005419  00000+0  26506-3 0  9999
2 66778  97.4198 232.1512 0003684 123.1787 236.9801 15.18616677 28962
KNACKSAT-2              
1 67683U 98067XZ  26158.80293920  .00048726  00000+0  61258-3 0  9996
2 67683  51.6303 341.6515 0010362 174.2130 185.8984 15.59121118 18810
